*******************************************************************************
Ephemeris / WWW_USER Mon Mar 26 21:52:15 2018 Pasadena, USA      / Horizons    
*******************************************************************************
Target body name: Earth (399)                     {source: DE431mx}
Center body name: Solar System Barycenter (0)     {source: DE431mx}
Center-site name: BODY CENTER
*******************************************************************************
Start time      : A.D. 2000-Jan-01 00:00:00.0000 TDB
Stop  time      : A.D. 2005-Jan-01 00:00:00.0000 TDB
Step-size       : 7200 minutes
*******************************************************************************
Center geodetic : 0.00000000,0.00000000,0.0000000 {E-lon(deg),Lat(deg),Alt(km)}
Center cylindric: 0.00000000,0.00000000,0.0000000 {E-lon(deg),Dxy(km),Dz(km)}
Center radii    : (undefined)                                                  
Output units    : AU-D                                                         
Output type     : GEOMETRIC cartesian states
Output format   : 2 (position and velocity)
Reference frame : ICRF/J2000.0                                                 
Coordinate systm: Ecliptic and Mean Equinox of Reference Epoch                 
*******************************************************************************
JDTDB
   X     Y     Z
   VX    VY    VZ
*******************************************************************************
$$SOE
2452804.500000000 = A.D. 2003-Jun-14 00:00:00.0000 TDB 
  -1.298526550685000E-01 -1.010965739258015E+00 -1.779887763443806E-05
   1.677611840967376E-02 -2.297897754101531E-03  5.165701375389207E-07
2452809.500000000 = A.D. 2003-Jun-19 00:00:00.0000 TDB 
  -4.560051585202152E-02 -1.018911151320103E+00 -1.653940830665238E-05
   1.690645524505926E-02 -8.778986041403457E-04 -9.811833861305700E-08
2452814.500000000 = A.D. 2003-Jun-24 00:00:00.0000 TDB 
   3.902032528444332E-02 -1.019724113925934E+00 -1.872649789853785E-05
   1.692193574601046E-02  5.540139485453566E-04 -7.073302237805088E-07
2452819.500000000 = A.D. 2003-Jun-29 00:00:00.0000 TDB 
   1.234141996619467E-01 -1.013368677854547E+00 -2.261373948476525E-05
   1.681476043250830E-02  1.987215703852800E-03 -7.312045983428866E-07
2452824.500000000 = A.D. 2003-Jul-04 00:00:00.0000 TDB 
   2.069578393958706E-01 -9.998752969581406E-01 -2.497177469273684E-05
   1.658180151835952E-02  3.406290680499701E-03 -1.403556650367749E-07
2452829.500000000 = A.D. 2003-Jul-09 00:00:00.0000 TDB 
   2.890300003174663E-01 -9.793587423495046E-01 -2.402843011341124E-05
   1.622787996213091E-02  4.793864542555310E-03  4.308521320737787E-07
2452834.500000000 = A.D. 2003-Jul-14 00:00:00.0000 TDB 
   3.690571878763339E-01 -9.520052031557278E-01 -2.213995770258750E-05
   1.576597380553700E-02  6.140881971188801E-03  1.695206887895925E-07
2452839.500000000 = A.D. 2003-Jul-19 00:00:00.0000 TDB 
   4.465191219550504E-01 -9.180131190660458E-01 -2.311443138100206E-05
   1.520124247933132E-02  7.449536569378279E-03 -5.456224321706276E-07
2452844.500000000 = A.D. 2003-Jul-24 00:00:00.0000 TDB 
   5.208893402418023E-01 -8.775818240155976E-01 -2.687503854376148E-05
   1.452856487214418E-02  8.714785197562993E-03 -8.541710104579188E-07
2452849.500000000 = A.D. 2003-Jul-29 00:00:00.0000 TDB 
   5.916217676733453E-01 -8.309586686389207E-01 -3.052683264837110E-05
   1.374621853026390E-02  9.923869497930478E-03 -5.006177819278599E-07
2452854.500000000 = A.D. 2003-Aug-03 00:00:00.0000 TDB 
   6.581748625103273E-01 -7.784637135676657E-01 -3.127690366864272E-05
   1.285830743567705E-02  1.106065629316795E-02  1.867787531301490E-07
2452859.500000000 = A.D. 2003-Aug-08 00:00:00.0000 TDB 
   7.200524546000947E-01 -7.204950267883606E-01 -2.963051761714431E-05
   1.187899148925158E-02  1.211226383326459E-02  3.190189781409198E-07
2452864.500000000 = A.D. 2003-Aug-13 00:00:00.0000 TDB 
   7.768370347510789E-01 -6.574826959686811E-01 -2.942680062017469E-05
   1.082244452726100E-02  1.307896088218538E-02 -3.053038102485203E-07
2452869.500000000 = A.D. 2003-Aug-18 00:00:00.0000 TDB 
   8.281508214503408E-01 -5.898430554730731E-01 -3.250710913156866E-05
   9.690244310292135E-03  1.396262349194804E-02 -8.455109715419222E-07
2452874.500000000 = A.D. 2003-Aug-23 00:00:00.0000 TDB 
   8.736119117123092E-01 -5.180079091628611E-01 -3.682509880567367E-05
   8.481679759042904E-03  1.475534134327670E-02 -7.685373634062403E-07
2452879.500000000 = A.D. 2003-Aug-28 00:00:00.0000 TDB 
   9.128470100642346E-01 -4.424614585976112E-01 -3.921393537438543E-05
   7.200991300772018E-03  1.544482830370601E-02 -1.295535784798249E-07
2452884.500000000 = A.D. 2003-Sep-02 00:00:00.0000 TDB 
   9.455217222841878E-01 -3.637552546730151E-01 -3.839173257056530E-05
   5.860656049470963E-03  1.601739941416426E-02  3.412263439812452E-07
2452889.500000000 = A.D. 2003-Sep-07 00:00:00.0000 TDB 
   9.713880368265484E-01 -2.824873996721683E-01 -3.730582736070220E-05
   4.480509638197266E-03  1.647039538454490E-02 -3.439980685631643E-08
2452894.500000000 = A.D. 2003-Sep-12 00:00:00.0000 TDB 
   9.902773901948332E-01 -1.992388515522522E-01 -3.924963133863395E-05
   3.070386608412202E-03  1.681052953638260E-02 -7.131218960379523E-07
2452899.500000000 = A.D. 2003-Sep-17 00:00:00.0000 TDB 
   1.002044015542907E+00 -1.145699998693336E-01 -4.359724886254815E-05
   1.631708149561357E-03  1.703768582636438E-02 -9.143609593808600E-07
2452904.500000000 = A.D. 2003-Sep-22 00:00:00.0000 TDB 
   1.006553977841996E+00 -2.906196801408004E-02 -4.728753171955627E-05
   1.688641378674315E-04  1.714480179396970E-02 -4.659884964029480E-07
2452909.500000000 = A.D. 2003-Sep-27 00:00:00.0000 TDB 
   1.003708076128603E+00  5.666193256343127E-02 -4.778326332108622E-05
  -1.308290269513668E-03  1.712225881560429E-02  2.336577570111248E-07
2452914.500000000 = A.D. 2003-Oct-02 00:00:00.0000 TDB 
   9.934808757502581E-01  1.419335390199076E-01 -4.620676703136459E-05
  -2.779642442737816E-03  1.696426018739493E-02  2.287424928005942E-07
2452919.500000000 = A.D. 2003-Oct-07 00:00:00.0000 TDB 
   9.759519197293184E-01  2.260948770766681E-01 -4.666634159504119E-05
  -4.227398462684431E-03  1.668029589839186E-02 -4.490725330296296E-07
2452924.500000000 = A.D. 2003-Oct-12 00:00:00.0000 TDB 
   9.512538894283710E-01  3.085414375812590E-01 -5.031396475517668E-05
  -5.646948893381331E-03  1.627897636896132E-02 -9.170324173472469E-07
2452929.500000000 = A.D. 2003-Oct-17 00:00:00.0000 TDB 
   9.195347107018321E-01  3.886894969066260E-01 -5.471326433342895E-05
  -7.034956987194006E-03  1.576047930645449E-02 -7.309135052021475E-07
2452934.500000000 = A.D. 2003-Oct-22 00:00:00.0000 TDB 
   8.809695506671074E-01  4.659453686158087E-01 -5.674325239462232E-05
  -8.383658514526734E-03  1.512139612487538E-02 -3.559578457556369E-08
2452939.500000000 = A.D. 2003-Oct-27 00:00:00.0000 TDB 
   8.357872224464283E-01  5.396949390015772E-01 -5.545823175937811E-05
  -9.678408377554478E-03  1.435759129184839E-02  4.111652594928116E-07
2452944.500000000 = A.D. 2003-Nov-01 00:00:00.0000 TDB 
   7.843132887597286E-01  6.093249062497988E-01 -5.432672295984522E-05
  -1.089721346244504E-02  1.347645278683767E-02 -7.952087849878112E-08
2452949.500000000 = A.D. 2003-Nov-06 00:00:00.0000 TDB 
   7.269565787850327E-01  6.742936871880069E-01 -5.651701541856561E-05
  -1.203130532944053E-02  1.249539946556291E-02 -7.444708426602771E-07
2452954.500000000 = A.D. 2003-Nov-11 00:00:00.0000 TDB 
   6.641427745989693E-01  7.341270887953044E-01 -6.082103850264850E-05
  -1.307975626295326E-02  1.142308938221749E-02 -8.608203819407901E-07
2452959.500000000 = A.D. 2003-Nov-16 00:00:00.0000 TDB 
   5.963077971839073E-01  7.883774744538552E-01 -6.403912670844326E-05
  -1.403879006613978E-02  1.026247283706371E-02 -3.421240307047497E-07
2452964.500000000 = A.D. 2003-Nov-21 00:00:00.0000 TDB 
   5.239175504639567E-01  8.366066799277696E-01 -6.390198130922482E-05
  -1.489993897492521E-02  9.014782291713019E-03  3.578756216212957E-07
2452969.500000000 = A.D. 2003-Nov-26 00:00:00.0000 TDB 
   4.474988675156044E-01  8.783866327407853E-01 -6.176305128712582E-05
  -1.564673164561510E-02  7.684683267427349E-03  3.139493824949025E-07
2452974.500000000 = A.D. 2003-Dec-01 00:00:00.0000 TDB 
   3.676656500632418E-01  9.133502175459749E-01 -6.196642293690042E-05
  -1.626510513772352E-02  6.292344832430084E-03 -4.122131215772236E-07
2452979.500000000 = A.D. 2003-Dec-06 00:00:00.0000 TDB 
   2.850579290630126E-01  9.412372797223837E-01 -6.529940822586828E-05
  -1.675728426025624E-02  4.856004183966913E-03 -8.187327436625896E-07
2452984.500000000 = A.D. 2003-Dec-11 00:00:00.0000 TDB 
   2.002985828329496E-01  9.618513362514723E-01 -6.901765251162039E-05
  -1.712588852739423E-02  3.384213272963847E-03 -5.607687090318244E-07
2452989.500000000 = A.D. 2003-Dec-16 00:00:00.0000 TDB 
   1.140067326676735E-01  9.750292055618935E-01 -7.015269256837169E-05
  -1.736969521964333E-02  1.882280324252669E-03  1.325299088279318E-07
2452994.500000000 = A.D. 2003-Dec-21 00:00:00.0000 TDB 
   2.682069008692760E-02  9.806322935691222E-01 -6.816868016132890E-05
  -1.748176474592207E-02  3.555044411456174E-04  5.319566954090122E-07
2452999.500000000 = A.D. 2003-Dec-26 00:00:00.0000 TDB 
  -6.057014286376223E-02  9.785662375700998E-01 -6.648555264884644E-05
  -1.744997741229275E-02 -1.181461357542624E-03  1.577951685122202E-08
2453004.500000000 = A.D. 2003-Dec-31 00:00:00.0000 TDB 
  -1.474404862739686E-01  9.688428268735308E-01 -6.817796960024122E-05
  -1.727534110542539E-02 -2.704000120909465E-03 -6.213063735774612E-07
2453009.500000000 = A.D. 2004-Jan-05 00:00:00.0000 TDB 
  -2.331037769263602E-01  9.515729301240373E-01 -7.165387439875319E-05
  -1.696866174268784E-02 -4.198658083490988E-03 -6.547419896957085E-07
